{"features":[{"geometry":{"coordinates":[29.925,-18.912],"type":"Point"},"type":"Feature","properties":{"iso":"zw","name":"Zimbabwe","rank":3}},{"geometry":{"coordinates":[26.395,-14.661],"type":"Point"},"type":"Feature","properties":{"iso":"zm","name":"Zambia","rank":3}},{"geometry":{"coordinates":[45.874,15.328],"type":"Point"},"type":"Feature","properties":{"iso":"ye","name":"Yemen","rank":3}},{"geometry":{"coordinates":[105.387,21.715],"type":"Point"},"type":"Feature","properties":{"iso":"vn","name":"Vietnam","rank":2}},{"geometry":{"coordinates":[-64.599,7.182],"type":"Point"},"type":"Feature","properties":{"iso":"ve","name":"Venezuela","rank":3}},{"geometry":{"coordinates":[12.453,41.903],"type":"Point"},"type":"Feature","properties":{"iso":"va","name":"Città del Vaticano","rank":6}},{"geometry":{"coordinates":[166.909,-15.372],"type":"Point"},"type":"Feature","properties":{"iso":"vu","name":"Vanuatu","rank":4}},{"geometry":{"coordinates":[64.005,41.694],"type":"Point"},"type":"Feature","properties":{"iso":"uz","name":"Uzbekistan","rank":3}},{"geometry":{"coordinates":[-55.967,-32.961],"type":"Point"},"type":"Feature","properties":{"iso":"uy","name":"Uruguay","rank":4}},{"geometry":{"coordinates":[158.234,6.888],"type":"Point"},"type":"Feature","properties":{"iso":"fm","name":"Stati Federati di Micronesia","rank":6}},{"geometry":{"coordinates":[171.194,7.083],"type":"Point"},"type":"Feature","properties":{"iso":"mh","name":"Isole Marshall","rank":6}},{"geometry":{"coordinates":[145.734,15.188],"type":"Point"},"type":"Feature","properties":{"iso":"mp","name":"Isole Marianne Settentrionali","rank":6}},{"geometry":{"coordinates":[-64.779,17.747],"type":"Point"},"type":"Feature","properties":{"iso":"vi","name":"Isole Vergini americane","rank":6}},{"geometry":{"coordinates":[144.704,13.354],"type":"Point"},"type":"Feature","properties":{"iso":"gu","name":"Guam","rank":6}},{"geometry":{"coordinates":[-170.747,-14.327],"type":"Point"},"type":"Feature","properties":{"iso":"as","name":"Samoa Americane","rank":4}},{"geometry":{"coordinates":[-66.481,18.235],"type":"Point"},"type":"Feature","properties":{"iso":"pr","name":"Porto Rico","rank":5}},{"geometry":{"coordinates":[-97.483,39.538],"type":"Point"},"type":"Feature","properties":{"iso":"us","name":"Stati Uniti d'America","rank":2}},{"geometry":{"coordinates":[-31.063,-55.683],"type":"Point"},"type":"Feature","properties":{"iso":"gs","name":"Georgia del Sud e isole Sandwich meridionali","rank":4}},{"geometry":{"coordinates":[71.348,-6.191],"type":"Point"},"type":"Feature","properties":{"iso":"io","name":"Territorio britannico dell'oceano Indiano","rank":5}},{"geometry":{"coordinates":[-5.713,-15.95],"type":"Point"},"type":"Feature","properties":{"iso":"sh","name":"Sant'Elena","rank":6}},{"geometry":{"coordinates":[-128.318,-24.365],"type":"Point"},"type":"Feature","properties":{"iso":"pn","name":"Isole Pitcairn","rank":4}},{"geometry":{"coordinates":[-63.026,18.243],"type":"Point"},"type":"Feature","properties":{"iso":"ai","name":"Anguilla","rank":6}},{"geometry":{"coordinates":[-58.739,-51.609],"type":"Point"},"type":"Feature","properties":{"iso":"fk","name":"Isole Falkland","rank":5}},{"geometry":{"coordinates":[-81.241,19.32],"type":"Point"},"type":"Feature","properties":{"iso":"ky","name":"Isole Cayman","rank":5}},{"geometry":{"coordinates":[-64.764,32.297],"type":"Point"},"type":"Feature","properties":{"iso":"bm","name":"Bermuda","rank":6}},{"geometry":{"coordinates":[-64.637,18.427],"type":"Point"},"type":"Feature","properties":{"iso":"vg","name":"Isole Vergini britanniche","rank":6}},{"geometry":{"coordinates":[-71.753,21.817],"type":"Point"},"type":"Feature","properties":{"iso":"tc","name":"Turks e Caicos","rank":6}},{"geometry":{"coordinates":[-62.188,16.737],"type":"Point"},"type":"Feature","properties":{"iso":"ms","name":"Montserrat","rank":6}},{"geometry":{"coordinates":[-2.09,49.221],"type":"Point"},"type":"Feature","properties":{"iso":"je","name":"baliato di Jersey","rank":6}},{"geometry":{"coordinates":[-2.562,49.464],"type":"Point"},"type":"Feature","properties":{"iso":"gg","name":"Guernsey","rank":6}},{"geometry":{"coordinates":[-4.53,54.221],"type":"Point"},"type":"Feature","properties":{"iso":"im","name":"Isola di Man","rank":6}},{"geometry":{"coordinates":[-2.116,54.403],"type":"Point"},"type":"Feature","properties":{"iso":"gb","name":"Regno Unito","rank":2}},{"geometry":{"coordinates":[54.547,23.466],"type":"Point"},"type":"Feature","properties":{"iso":"ae","name":"Emirati Arabi Uniti","rank":4}},{"geometry":{"coordinates":[32.141,49.725],"type":"Point"},"type":"Feature","properties":{"iso":"ua","name":"Ucraina","rank":3}},{"geometry":{"coordinates":[32.949,1.973],"type":"Point"},"type":"Feature","properties":{"iso":"ug","name":"Uganda","rank":3}},{"geometry":{"coordinates":[58.677,39.855],"type":"Point"},"type":"Feature","properties":{"iso":"tm","name":"Turkmenistan","rank":4}},{"geometry":{"coordinates":[34.508,39.345],"type":"Point"},"type":"Feature","properties":{"iso":"tr","name":"Turchia","rank":2}},{"geometry":{"coordinates":[9.008,33.687],"type":"Point"},"type":"Feature","properties":{"iso":"tn","name":"Tunisia","rank":3}},{"geometry":{"coordinates":[-60.918,10.999],"type":"Point"},"type":"Feature","properties":{"iso":"tt","name":"Trinidad e Tobago","rank":5}},{"geometry":{"coordinates":[-175.163,-21.21],"type":"Point"},"type":"Feature","properties":{"iso":"to","name":"Tonga","rank":4}},{"geometry":{"coordinates":[1.058,8.807],"type":"Point"},"type":"Feature","properties":{"iso":"tg","name":"Togo","rank":6}},{"geometry":{"coordinates":[125.855,-8.804],"type":"Point"},"type":"Feature","properties":{"iso":"tl","name":"Timor Est","rank":5}},{"geometry":{"coordinates":[101.073,15.46],"type":"Point"},"type":"Feature","properties":{"iso":"th","name":"Thailandia","rank":3}},{"geometry":{"coordinates":[34.959,-6.052],"type":"Point"},"type":"Feature","properties":{"iso":"tz","name":"Tanzania","rank":3}},{"geometry":{"coordinates":[72.587,38.2],"type":"Point"},"type":"Feature","properties":{"iso":"tj","name":"Tagikistan","rank":4}},{"geometry":{"coordinates":[120.868,23.652],"type":"Point"},"type":"Feature","properties":{"iso":"tw","name":"Taiwan","rank":3}},{"geometry":{"coordinates":[38.278,35.007],"type":"Point"},"type":"Feature","properties":{"iso":"sy","name":"Siria","rank":3}},{"geometry":{"coordinates":[7.464,46.719],"type":"Point"},"type":"Feature","properties":{"iso":"ch","name":"Svizzera","rank":4}},{"geometry":{"coordinates":[19.017,65.859],"type":"Point"},"type":"Feature","properties":{"iso":"se","name":"Svezia","rank":3}},{"geometry":{"coordinates":[31.467,-26.534],"type":"Point"},"type":"Feature","properties":{"iso":"sz","name":"eSwatini","rank":4}},{"geometry":{"coordinates":[-55.911,4.144],"type":"Point"},"type":"Feature","properties":{"iso":"sr","name":"Suriname","rank":4}},{"geometry":{"coordinates":[30.39,7.23],"type":"Point"},"type":"Feature","properties":{"iso":"ss","name":"Sudan del Sud","rank":3}},{"geometry":{"coordinates":[29.261,16.331],"type":"Point"},"type":"Feature","properties":{"iso":"sd","name":"Sudan","rank":3}},{"geometry":{"coordinates":[80.705,7.581],"type":"Point"},"type":"Feature","properties":{"iso":"lk","name":"Sri Lanka","rank":3}},{"geometry":{"coordinates":[-3.465,40.091],"type":"Point"},"type":"Feature","properties":{"iso":"es","name":"Spagna","rank":2}},{"geometry":{"coordinates":[128.13,36.385],"type":"Point"},"type":"Feature","properties":{"iso":"kr","name":"Corea del Sud","rank":2}},{"geometry":{"coordinates":[23.666,-29.709],"type":"Point"},"type":"Feature","properties":{"iso":"za","name":"Sudafrica","rank":2}},{"geometry":{"coordinates":[45.192,3.569],"type":"Point"},"type":"Feature","properties":{"iso":"so","name":"Somalia","rank":6}},{"geometry":{"coordinates":[46.732,9.444],"type":"Point"},"type":"Feature","properties":{"name":"Somaliland","rank":5}},{"geometry":{"coordinates":[159.17,-8.03],"type":"Point"},"type":"Feature","properties":{"iso":"sb","name":"Isole Salomone","rank":3}},{"geometry":{"coordinates":[19.05,48.734],"type":"Point"},"type":"Feature","properties":{"iso":"sk","name":"Slovacchia","rank":6}},{"geometry":{"coordinates":[14.915,46.061],"type":"Point"},"type":"Feature","properties":{"iso":"si","name":"Slovenia","rank":6}},{"geometry":{"coordinates":[103.817,1.367],"type":"Point"},"type":"Feature","properties":{"iso":"sg","name":"Singapore","rank":6}},{"geometry":{"coordinates":[-11.764,8.617],"type":"Point"},"type":"Feature","properties":{"iso":"sl","name":"Sierra Leone","rank":4}},{"geometry":{"coordinates":[55.48,-4.677],"type":"Point"},"type":"Feature","properties":{"iso":"sc","name":"Seychelles","rank":6}},{"geometry":{"coordinates":[20.788,44.19],"type":"Point"},"type":"Feature","properties":{"iso":"rs","name":"Serbia","rank":5}},{"geometry":{"coordinates":[-14.779,15.138],"type":"Point"},"type":"Feature","properties":{"iso":"sn","name":"Senegal","rank":3}},{"geometry":{"coordinates":[44.7,23.807],"type":"Point"},"type":"Feature","properties":{"iso":"sa","name":"Arabia Saudita","rank":2}},{"geometry":{"coordinates":[7.021,0.971],"type":"Point"},"type":"Feature","properties":{"iso":"st","name":"São Tomé e Príncipe","rank":6}},{"geometry":{"coordinates":[12.441,43.934],"type":"Point"},"type":"Feature","properties":{"iso":"sm","name":"San Marino","rank":6}},{"geometry":{"coordinates":[-172.438,-13.639],"type":"Point"},"type":"Feature","properties":{"iso":"ws","name":"Samoa","rank":4}},{"geometry":{"coordinates":[-61.336,13.088],"type":"Point"},"type":"Feature","properties":{"iso":"vc","name":"Saint Vincent e Grenadine","rank":6}},{"geometry":{"coordinates":[-60.98,13.892],"type":"Point"},"type":"Feature","properties":{"iso":"lc","name":"Saint Lucia","rank":6}},{"geometry":{"coordinates":[-62.758,17.337],"type":"Point"},"type":"Feature","properties":{"iso":"kn","name":"Saint Kitts e Nevis","rank":6}},{"geometry":{"coordinates":[30.104,-1.897],"type":"Point"},"type":"Feature","properties":{"iso":"rw","name":"Ruanda","rank":3}},{"geometry":{"coordinates":[44.686,58.249],"type":"Point"},"type":"Feature","properties":{"iso":"ru","name":"Russia","rank":2}},{"geometry":{"coordinates":[24.973,45.733],"type":"Point"},"type":"Feature","properties":{"iso":"ro","name":"Romania","rank":3}},{"geometry":{"coordinates":[51.144,25.237],"type":"Point"},"type":"Feature","properties":{"iso":"qa","name":"Qatar","rank":5}},{"geometry":{"coordinates":[-8.272,39.607],"type":"Point"},"type":"Feature","properties":{"iso":"pt","name":"Portogallo","rank":2}},{"geometry":{"coordinates":[19.49,51.99],"type":"Point"},"type":"Feature","properties":{"iso":"pl","name":"Polonia","rank":3}},{"geometry":{"coordinates":[122.465,11.198],"type":"Point"},"type":"Feature","properties":{"iso":"ph","name":"Filippine","rank":2}},{"geometry":{"coordinates":[-72.9,-12.977],"type":"Point"},"type":"Feature","properties":{"iso":"pe","name":"Perù","rank":2}},{"geometry":{"coordinates":[-60.146,-21.675],"type":"Point"},"type":"Feature","properties":{"iso":"py","name":"Paraguay","rank":4}},{"geometry":{"coordinates":[143.91,-5.695],"type":"Point"},"type":"Feature","properties":{"iso":"pg","name":"Papua Nuova Guinea","rank":2}},{"geometry":{"coordinates":[-80.352,8.722],"type":"Point"},"type":"Feature","properties":{"iso":"pa","name":"Panama","rank":4}},{"geometry":{"coordinates":[134.58,7.518],"type":"Point"},"type":"Feature","properties":{"iso":"pw","name":"Palau","rank":6}},{"geometry":{"coordinates":[68.546,29.328],"type":"Point"},"type":"Feature","properties":{"iso":"pk","name":"Pakistan","rank":2}},{"geometry":{"coordinates":[57.337,22.12],"type":"Point"},"type":"Feature","properties":{"iso":"om","name":"Oman","rank":4}},{"geometry":{"coordinates":[9.68,61.357],"type":"Point"},"type":"Feature","properties":{"iso":"no","name":"Norvegia","rank":3}},{"geometry":{"coordinates":[126.445,39.885],"type":"Point"},"type":"Feature","properties":{"iso":"kp","name":"Corea del Nord","rank":3}},{"geometry":{"coordinates":[7.503,9.44],"type":"Point"},"type":"Feature","properties":{"iso":"ng","name":"Nigeria","rank":2}},{"geometry":{"coordinates":[9.504,17.446],"type":"Point"},"type":"Feature","properties":{"iso":"ne","name":"Niger","rank":3}},{"geometry":{"coordinates":[-85.069,12.671],"type":"Point"},"type":"Feature","properties":{"iso":"ni","name":"Nicaragua","rank":5}},{"geometry":{"coordinates":[172.787,-39.759],"type":"Point"},"type":"Feature","properties":{"iso":"nz","name":"Nuova Zelanda","rank":2}},{"geometry":{"coordinates":[-169.863,-19.046],"type":"Point"},"type":"Feature","properties":{"iso":"nu","name":"Niue","rank":4}},{"geometry":{"coordinates":[-159.786,-21.216],"type":"Point"},"type":"Feature","properties":{"iso":"ck","name":"Isole Cook","rank":4}},{"geometry":{"coordinates":[5.611,52.422],"type":"Point"},"type":"Feature","properties":{"iso":"nl","name":"Paesi Bassi","rank":5}},{"geometry":{"coordinates":[-69.973,12.517],"type":"Point"},"type":"Feature","properties":{"iso":"aw","name":"Aruba","rank":5}},{"geometry":{"coordinates":[-68.921,12.145],"type":"Point"},"type":"Feature","properties":{"iso":"cw","name":"Curaçao","rank":5}},{"geometry":{"coordinates":[83.64,28.298],"type":"Point"},"type":"Feature","properties":{"iso":"np","name":"Nepal","rank":3}},{"geometry":{"coordinates":[166.933,-0.52],"type":"Point"},"type":"Feature","properties":{"iso":"nr","name":"Nauru","rank":6}},{"geometry":{"coordinates":[17.108,-20.575],"type":"Point"},"type":"Feature","properties":{"iso":"na","name":"Namibia","rank":3}},{"geometry":{"coordinates":[37.838,-13.943],"type":"Point"},"type":"Feature","properties":{"iso":"mz","name":"Mozambico","rank":3}},{"geometry":{"coordinates":[-7.187,31.651],"type":"Point"},"type":"Feature","properties":{"iso":"ma","name":"Marocco","rank":3}},{"geometry":{"coordinates":[-12.63,23.968],"type":"Point"},"type":"Feature","properties":{"iso":"eh","name":"Sahara Occidentale","rank":7}},{"geometry":{"coordinates":[19.144,42.803],"type":"Point"},"type":"Feature","properties":{"iso":"me","name":"Montenegro","rank":6}},{"geometry":{"coordinates":[104.15,45.997],"type":"Point"},"type":"Feature","properties":{"iso":"mn","name":"Mongolia","rank":3}},{"geometry":{"coordinates":[28.488,47.435],"type":"Point"},"type":"Feature","properties":{"iso":"md","name":"Moldavia","rank":6}},{"geometry":{"coordinates":[7.398,43.74],"type":"Point"},"type":"Feature","properties":{"iso":"mc","name":"Principato di Monaco","rank":6}},{"geometry":{"coordinates":[-102.289,23.92],"type":"Point"},"type":"Feature","properties":{"iso":"mx","name":"Messico","rank":2}},{"geometry":{"coordinates":[57.566,-20.3],"type":"Point"},"type":"Feature","properties":{"iso":"mu","name":"Mauritius","rank":5}},{"geometry":{"coordinates":[-9.74,19.587],"type":"Point"},"type":"Feature","properties":{"iso":"mr","name":"Mauritania","rank":3}},{"geometry":{"coordinates":[14.433,35.893],"type":"Point"},"type":"Feature","properties":{"iso":"mt","name":"Malta","rank":5}},{"geometry":{"coordinates":[-2.038,18.693],"type":"Point"},"type":"Feature","properties":{"iso":"ml","name":"Mali","rank":3}},{"geometry":{"coordinates":[73.508,4.174],"type":"Point"},"type":"Feature","properties":{"iso":"mv","name":"Maldive","rank":5}},{"geometry":{"coordinates":[113.837,2.529],"type":"Point"},"type":"Feature","properties":{"iso":"my","name":"Malaysia","rank":3}},{"geometry":{"coordinates":[33.608,-13.387],"type":"Point"},"type":"Feature","properties":{"iso":"mw","name":"Malawi","rank":6}},{"geometry":{"coordinates":[46.704,-18.628],"type":"Point"},"type":"Feature","properties":{"iso":"mg","name":"Madagascar","rank":3}},{"geometry":{"coordinates":[21.556,41.558],"type":"Point"},"type":"Feature","properties":{"iso":"mk","name":"Macedonia del Nord","rank":6}},{"geometry":{"coordinates":[6.078,49.734],"type":"Point"},"type":"Feature","properties":{"iso":"lu","name":"Lussemburgo","rank":6}},{"geometry":{"coordinates":[24.09,55.104],"type":"Point"},"type":"Feature","properties":{"iso":"lt","name":"Lituania","rank":5}},{"geometry":{"coordinates":[9.559,47.111],"type":"Point"},"type":"Feature","properties":{"iso":"li","name":"Liechtenstein","rank":6}},{"geometry":{"coordinates":[18.011,26.639],"type":"Point"},"type":"Feature","properties":{"iso":"ly","name":"Libia","rank":3}},{"geometry":{"coordinates":[-9.46,6.447],"type":"Point"},"type":"Feature","properties":{"iso":"lr","name":"Liberia","rank":4}},{"geometry":{"coordinates":[28.247,-29.48],"type":"Point"},"type":"Feature","properties":{"iso":"ls","name":"Lesotho","rank":6}},{"geometry":{"coordinates":[35.993,34.133],"type":"Point"},"type":"Feature","properties":{"iso":"lb","name":"Libano","rank":5}},{"geometry":{"coordinates":[25.459,57.067],"type":"Point"},"type":"Feature","properties":{"iso":"lv","name":"Lettonia","rank":5}},{"geometry":{"coordinates":[102.534,19.432],"type":"Point"},"type":"Feature","properties":{"iso":"la","name":"Laos","rank":4}},{"geometry":{"coordinates":[74.533,41.669],"type":"Point"},"type":"Feature","properties":{"iso":"kg","name":"Kirghizistan","rank":4}},{"geometry":{"coordinates":[47.314,29.414],"type":"Point"},"type":"Feature","properties":{"iso":"kw","name":"Kuwait","rank":6}},{"geometry":{"coordinates":[20.861,42.594],"type":"Point"},"type":"Feature","properties":{"iso":"xk","name":"Kosovo","rank":6}},{"geometry":{"coordinates":[-157.385,1.82],"type":"Point"},"type":"Feature","properties":{"iso":"ki","name":"Kiribati","rank":6}},{"geometry":{"coordinates":[37.908,0.549],"type":"Point"},"type":"Feature","properties":{"iso":"ke","name":"Kenya","rank":2}},{"geometry":{"coordinates":[68.686,49.054],"type":"Point"},"type":"Feature","properties":{"iso":"kz","name":"Kazakistan","rank":3}},{"geometry":{"coordinates":[36.376,30.805],"type":"Point"},"type":"Feature","properties":{"iso":"jo","name":"Giordania","rank":4}},{"geometry":{"coordinates":[138.442,36.143],"type":"Point"},"type":"Feature","properties":{"iso":"jp","name":"Giappone","rank":2}},{"geometry":{"coordinates":[-77.319,18.137],"type":"Point"},"type":"Feature","properties":{"iso":"jm","name":"Giamaica","rank":4}},{"geometry":{"coordinates":[11.077,44.732],"type":"Point"},"type":"Feature","properties":{"iso":"it","name":"Italia","rank":2}},{"geometry":{"coordinates":[34.848,30.911],"type":"Point"},"type":"Feature","properties":{"iso":"il","name":"Israele","rank":4}},{"geometry":{"coordinates":[35.291,32.047],"type":"Point"},"type":"Feature","properties":{"iso":"ps","name":"Palestina","rank":5}},{"geometry":{"coordinates":[-7.799,53.079],"type":"Point"},"type":"Feature","properties":{"iso":"ie","name":"Irlanda","rank":3}},{"geometry":{"coordinates":[43.262,33.094],"type":"Point"},"type":"Feature","properties":{"iso":"iq","name":"Iraq","rank":3}},{"geometry":{"coordinates":[54.931,32.166],"type":"Point"},"type":"Feature","properties":{"iso":"ir","name":"Iran","rank":2}},{"geometry":{"coordinates":[101.893,-0.954],"type":"Point"},"type":"Feature","properties":{"iso":"id","name":"Indonesia","rank":2}},{"geometry":{"coordinates":[79.358,22.687],"type":"Point"},"type":"Feature","properties":{"iso":"in","name":"India","rank":2}},{"geometry":{"coordinates":[-18.674,64.779],"type":"Point"},"type":"Feature","properties":{"iso":"is","name":"Islanda","rank":3}},{"geometry":{"coordinates":[19.448,47.087],"type":"Point"},"type":"Feature","properties":{"iso":"hu","name":"Ungheria","rank":5}},{"geometry":{"coordinates":[-86.888,14.795],"type":"Point"},"type":"Feature","properties":{"iso":"hn","name":"Honduras","rank":5}},{"geometry":{"coordinates":[-72.224,19.264],"type":"Point"},"type":"Feature","properties":{"iso":"ht","name":"Haiti","rank":5}},{"geometry":{"coordinates":[-58.943,5.124],"type":"Point"},"type":"Feature","properties":{"iso":"gy","name":"Guyana","rank":4}},{"geometry":{"coordinates":[-14.524,12.164],"type":"Point"},"type":"Feature","properties":{"iso":"gw","name":"Guinea-Bissau","rank":6}},{"geometry":{"coordinates":[-10.016,10.619],"type":"Point"},"type":"Feature","properties":{"iso":"gn","name":"Guinea","rank":3}},{"geometry":{"coordinates":[-90.497,14.982],"type":"Point"},"type":"Feature","properties":{"iso":"gt","name":"Guatemala","rank":3}},{"geometry":{"coordinates":[-61.68,12.113],"type":"Point"},"type":"Feature","properties":{"iso":"gd","name":"Grenada","rank":6}},{"geometry":{"coordinates":[21.726,39.493],"type":"Point"},"type":"Feature","properties":{"iso":"gr","name":"Grecia","rank":3}},{"geometry":{"coordinates":[-1.037,7.718],"type":"Point"},"type":"Feature","properties":{"iso":"gh","name":"Ghana","rank":3}},{"geometry":{"coordinates":[9.678,50.962],"type":"Point"},"type":"Feature","properties":{"iso":"de","name":"Germania","rank":2}},{"geometry":{"coordinates":[43.736,41.87],"type":"Point"},"type":"Feature","properties":{"iso":"ge","name":"Georgia","rank":5}},{"geometry":{"coordinates":[-14.998,13.642],"type":"Point"},"type":"Feature","properties":{"iso":"gm","name":"Gambia","rank":6}},{"geometry":{"coordinates":[11.836,-0.438],"type":"Point"},"type":"Feature","properties":{"iso":"ga","name":"Gabon","rank":4}},{"geometry":{"coordinates":[2.552,46.696],"type":"Point"},"type":"Feature","properties":{"iso":"fr","name":"Francia","rank":2}},{"geometry":{"coordinates":[-56.332,47.04],"type":"Point"},"type":"Feature","properties":{"iso":"pm","name":"Saint-Pierre e Miquelon","rank":4}},{"geometry":{"coordinates":[-178.137,-14.286],"type":"Point"},"type":"Feature","properties":{"iso":"wf","name":"Wallis e Futuna","rank":4}},{"geometry":{"coordinates":[-63.049,18.081],"type":"Point"},"type":"Feature","properties":{"iso":"mf","name":"Saint-Martin","rank":6}},{"geometry":{"coordinates":[-62.833,17.902],"type":"Point"},"type":"Feature","properties":{"iso":"bl","name":"Saint-Barthélemy","rank":6}},{"geometry":{"coordinates":[-149.462,-17.628],"type":"Point"},"type":"Feature","properties":{"iso":"pf","name":"Polinesia francese","rank":4}},{"geometry":{"coordinates":[165.084,-21.065],"type":"Point"},"type":"Feature","properties":{"iso":"nc","name":"Nuova Caledonia","rank":3}},{"geometry":{"coordinates":[69.122,-49.304],"type":"Point"},"type":"Feature","properties":{"iso":"tf","name":"Terre australi e antartiche francesi","rank":6}},{"geometry":{"coordinates":[19.87,60.156],"type":"Point"},"type":"Feature","properties":{"iso":"ax","name":"Isole Åland","rank":6}},{"geometry":{"coordinates":[27.276,63.252],"type":"Point"},"type":"Feature","properties":{"iso":"fi","name":"Finlandia","rank":3}},{"geometry":{"coordinates":[177.975,-17.826],"type":"Point"},"type":"Feature","properties":{"iso":"fj","name":"Figi","rank":6}},{"geometry":{"coordinates":[39.089,8.033],"type":"Point"},"type":"Feature","properties":{"iso":"et","name":"Etiopia","rank":2}},{"geometry":{"coordinates":[25.867,58.725],"type":"Point"},"type":"Feature","properties":{"iso":"ee","name":"Estonia","rank":6}},{"geometry":{"coordinates":[38.286,15.787],"type":"Point"},"type":"Feature","properties":{"iso":"er","name":"Eritrea","rank":4}},{"geometry":{"coordinates":[8.99,2.333],"type":"Point"},"type":"Feature","properties":{"iso":"gq","name":"Guinea Equatoriale","rank":4}},{"geometry":{"coordinates":[-88.89,13.685],"type":"Point"},"type":"Feature","properties":{"iso":"sv","name":"El Salvador","rank":6}},{"geometry":{"coordinates":[29.446,26.186],"type":"Point"},"type":"Feature","properties":{"iso":"eg","name":"Egitto","rank":2}},{"geometry":{"coordinates":[-78.188,-1.259],"type":"Point"},"type":"Feature","properties":{"iso":"ec","name":"Ecuador","rank":3}},{"geometry":{"coordinates":[-70.654,19.104],"type":"Point"},"type":"Feature","properties":{"iso":"do","name":"Repubblica Dominicana","rank":5}},{"geometry":{"coordinates":[-61.345,15.459],"type":"Point"},"type":"Feature","properties":{"iso":"dm","name":"Dominica","rank":6}},{"geometry":{"coordinates":[42.499,11.976],"type":"Point"},"type":"Feature","properties":{"iso":"dj","name":"Gibuti","rank":5}},{"geometry":{"coordinates":[-39.335,74.319],"type":"Point"},"type":"Feature","properties":{"iso":"gl","name":"Groenlandia","rank":3}},{"geometry":{"coordinates":[-7.058,62.186],"type":"Point"},"type":"Feature","properties":{"iso":"fo","name":"Fær Øer","rank":6}},{"geometry":{"coordinates":[9.018,55.967],"type":"Point"},"type":"Feature","properties":{"iso":"dk","name":"Danimarca","rank":4}},{"geometry":{"coordinates":[15.378,49.882],"type":"Point"},"type":"Feature","properties":{"iso":"cz","name":"Repubblica Ceca","rank":5}},{"geometry":{"coordinates":[33.692,35.216],"type":"Point"},"type":"Feature","properties":{"name":"Cipro del Nord","rank":6}},{"geometry":{"coordinates":[33.084,34.913],"type":"Point"},"type":"Feature","properties":{"iso":"cy","name":"Cipro","rank":5}},{"geometry":{"coordinates":[-77.976,21.334],"type":"Point"},"type":"Feature","properties":{"iso":"cu","name":"Cuba","rank":3}},{"geometry":{"coordinates":[16.372,45.806],"type":"Point"},"type":"Feature","properties":{"iso":"hr","name":"Croazia","rank":6}},{"geometry":{"coordinates":[-5.569,7.491],"type":"Point"},"type":"Feature","properties":{"iso":"ci","name":"Costa d'Avorio","rank":3}},{"geometry":{"coordinates":[-84.078,10.065],"type":"Point"},"type":"Feature","properties":{"iso":"cr","name":"Costa Rica","rank":5}},{"geometry":{"coordinates":[23.459,-1.858],"type":"Point"},"type":"Feature","properties":{"iso":"cd","name":"Repubblica Democratica del Congo","rank":2}},{"geometry":{"coordinates":[15.901,0.142],"type":"Point"},"type":"Feature","properties":{"iso":"cg","name":"Repubblica del Congo","rank":4}},{"geometry":{"coordinates":[43.318,-11.728],"type":"Point"},"type":"Feature","properties":{"iso":"km","name":"Comore","rank":6}},{"geometry":{"coordinates":[-73.174,3.373],"type":"Point"},"type":"Feature","properties":{"iso":"co","name":"Colombia","rank":2}},{"geometry":{"coordinates":[106.337,32.498],"type":"Point"},"type":"Feature","properties":{"iso":"cn","name":"Cina","rank":2}},{"geometry":{"coordinates":[113.556,22.13],"type":"Point"},"type":"Feature","properties":{"iso":"mo","name":"Macao","rank":4}},{"geometry":{"coordinates":[114.098,22.449],"type":"Point"},"type":"Feature","properties":{"iso":"hk","name":"Hong Kong","rank":4}},{"geometry":{"coordinates":[-72.319,-38.152],"type":"Point"},"type":"Feature","properties":{"iso":"cl","name":"Cile","rank":2}},{"geometry":{"coordinates":[18.645,15.143],"type":"Point"},"type":"Feature","properties":{"iso":"td","name":"Ciad","rank":3}},{"geometry":{"coordinates":[20.907,6.99],"type":"Point"},"type":"Feature","properties":{"iso":"cf","name":"Repubblica Centrafricana","rank":4}},{"geometry":{"coordinates":[-23.639,15.075],"type":"Point"},"type":"Feature","properties":{"iso":"cv","name":"Capo Verde","rank":4}},{"geometry":{"coordinates":[-101.911,60.324],"type":"Point"},"type":"Feature","properties":{"iso":"ca","name":"Canada","rank":2}},{"geometry":{"coordinates":[12.473,4.585],"type":"Point"},"type":"Feature","properties":{"iso":"cm","name":"Camerun","rank":3}},{"geometry":{"coordinates":[104.505,12.648],"type":"Point"},"type":"Feature","properties":{"iso":"kh","name":"Cambogia","rank":3}},{"geometry":{"coordinates":[95.804,21.574],"type":"Point"},"type":"Feature","properties":{"iso":"mm","name":"Birmania","rank":3}},{"geometry":{"coordinates":[29.917,-3.333],"type":"Point"},"type":"Feature","properties":{"iso":"bi","name":"Burundi","rank":6}},{"geometry":{"coordinates":[-1.364,12.673],"type":"Point"},"type":"Feature","properties":{"iso":"bf","name":"Burkina Faso","rank":3}},{"geometry":{"coordinates":[25.157,42.509],"type":"Point"},"type":"Feature","properties":{"iso":"bg","name":"Bulgaria","rank":4}},{"geometry":{"coordinates":[114.552,4.448],"type":"Point"},"type":"Feature","properties":{"iso":"bn","name":"Brunei","rank":6}},{"geometry":{"coordinates":[-49.559,-12.099],"type":"Point"},"type":"Feature","properties":{"iso":"br","name":"Brasile","rank":2}},{"geometry":{"coordinates":[24.179,-22.103],"type":"Point"},"type":"Feature","properties":{"iso":"bw","name":"Botswana","rank":4}},{"geometry":{"coordinates":[18.068,44.091],"type":"Point"},"type":"Feature","properties":{"iso":"ba","name":"Bosnia ed Erzegovina","rank":5}},{"geometry":{"coordinates":[-64.593,-16.666],"type":"Point"},"type":"Feature","properties":{"iso":"bo","name":"Bolivia","rank":3}},{"geometry":{"coordinates":[90.04,27.537],"type":"Point"},"type":"Feature","properties":{"iso":"bt","name":"Bhutan","rank":5}},{"geometry":{"coordinates":[2.352,10.325],"type":"Point"},"type":"Feature","properties":{"iso":"bj","name":"Benin","rank":5}},{"geometry":{"coordinates":[-88.713,17.202],"type":"Point"},"type":"Feature","properties":{"iso":"bz","name":"Belize","rank":6}},{"geometry":{"coordinates":[4.8,50.785],"type":"Point"},"type":"Feature","properties":{"iso":"be","name":"Belgio","rank":2}},{"geometry":{"coordinates":[28.418,53.822],"type":"Point"},"type":"Feature","properties":{"iso":"by","name":"Bielorussia","rank":4}},{"geometry":{"coordinates":[-59.569,13.164],"type":"Point"},"type":"Feature","properties":{"iso":"bb","name":"Barbados","rank":5}},{"geometry":{"coordinates":[89.685,24.215],"type":"Point"},"type":"Feature","properties":{"iso":"bd","name":"Bangladesh","rank":3}},{"geometry":{"coordinates":[50.555,26.056],"type":"Point"},"type":"Feature","properties":{"iso":"bh","name":"Bahrein","rank":4}},{"geometry":{"coordinates":[-77.147,26.402],"type":"Point"},"type":"Feature","properties":{"iso":"bs","name":"Bahamas","rank":4}},{"geometry":{"coordinates":[47.211,40.402],"type":"Point"},"type":"Feature","properties":{"iso":"az","name":"Azerbaigian","rank":5}},{"geometry":{"coordinates":[14.131,47.519],"type":"Point"},"type":"Feature","properties":{"iso":"at","name":"Austria","rank":4}},{"geometry":{"coordinates":[134.05,-24.13],"type":"Point"},"type":"Feature","properties":{"iso":"au","name":"Australia","rank":2}},{"geometry":{"coordinates":[105.673,-10.491],"type":"Point"},"type":"Feature","properties":{"iso":"au","name":"Australian Indian Ocean Territories","rank":5}},{"geometry":{"coordinates":[73.505,-53.103],"type":"Point"},"type":"Feature","properties":{"iso":"hm","name":"Isole Heard e McDonald","rank":5}},{"geometry":{"coordinates":[167.955,-29.033],"type":"Point"},"type":"Feature","properties":{"iso":"nf","name":"Isola Norfolk","rank":5}},{"geometry":{"coordinates":[123.586,-12.433],"type":"Point"},"type":"Feature","properties":{"iso":"au","name":"Isole Ashmore e Cartier","rank":5}},{"geometry":{"coordinates":[44.801,40.459],"type":"Point"},"type":"Feature","properties":{"iso":"am","name":"Armenia","rank":6}},{"geometry":{"coordinates":[-64.173,-33.501],"type":"Point"},"type":"Feature","properties":{"iso":"ar","name":"Argentina","rank":2}},{"geometry":{"coordinates":[-61.791,17.352],"type":"Point"},"type":"Feature","properties":{"iso":"ag","name":"Antigua e Barbuda","rank":6}},{"geometry":{"coordinates":[17.984,-12.183],"type":"Point"},"type":"Feature","properties":{"iso":"ao","name":"Angola","rank":3}},{"geometry":{"coordinates":[1.539,42.548],"type":"Point"},"type":"Feature","properties":{"iso":"ad","name":"Andorra","rank":6}},{"geometry":{"coordinates":[2.808,27.397],"type":"Point"},"type":"Feature","properties":{"iso":"dz","name":"Algeria","rank":3}},{"geometry":{"coordinates":[20.114,40.655],"type":"Point"},"type":"Feature","properties":{"iso":"al","name":"Albania","rank":6}},{"geometry":{"coordinates":[66.497,34.164],"type":"Point"},"type":"Feature","properties":{"iso":"af","name":"Afghanistan","rank":3}},{"geometry":{"coordinates":[77.13,35.341],"type":"Point"},"type":"Feature","properties":{"name":"ghiacciaio Siachen","rank":5}},{"geometry":{"coordinates":[35.885,-79.843],"type":"Point"},"type":"Feature","properties":{"iso":"aq","name":"Antartide","rank":4}},{"geometry":{"coordinates":[-63.07,18.041],"type":"Point"},"type":"Feature","properties":{"iso":"sx","name":"Sint Maarten","rank":6}},{"geometry":{"coordinates":[179.21,-8.514],"type":"Point"},"type":"Feature","properties":{"iso":"tv","name":"Tuvalu","rank":6}}],"type":"FeatureCollection"}